CCSDS_OMM_VERS = 2.0
CREATION_DATE  = 
ORIGINATOR     = 

OBJECT_NAME    = ATLAS CENTAUR R/B
OBJECT_ID      = 1972-065B
CENTER_NAME    = EARTH
REF_FRAME      = TEME
TIME_SYSTEM    = UTC
MEAN_ELEMENT_THEORY = SGP/SGP4

EPOCH          = 2026-02-22T15:01:14.003328
MEAN_MOTION    = 14.77638885
ECCENTRICITY   = .0034384
INCLINATION    = 35.0024
RA_OF_ASC_NODE = 34.0279
ARG_OF_PERICENTER = 243.8816
MEAN_ANOMALY   = 115.8345

EPHEMERIS_TYPE = 0
CLASSIFICATION_TYPE = U
NORAD_CAT_ID   = 6155
ELEMENT_SET_NO = 999
REV_AT_EPOCH   = 83903
BSTAR          = .18795E-3
MEAN_MOTION_DOT = .1357E-4
MEAN_MOTION_DDOT = 0

CCSDS_OMM_VERS = 2.0
CREATION_DATE  = 
ORIGINATOR     = 

OBJECT_NAME    = SL-8 R/B
OBJECT_ID      = 1975-112B
CENTER_NAME    = EARTH
REF_FRAME      = TEME
TIME_SYSTEM    = UTC
MEAN_ELEMENT_THEORY = SGP/SGP4

EPOCH          = 2026-02-22T16:29:07.999296
MEAN_MOTION    = 14.38194483
ECCENTRICITY   = .0014819
INCLINATION    = 74.0598
RA_OF_ASC_NODE = 46.5105
ARG_OF_PERICENTER = 145.5893
MEAN_ANOMALY   = 214.6224

EPHEMERIS_TYPE = 0
CLASSIFICATION_TYPE = U
NORAD_CAT_ID   = 8459
ELEMENT_SET_NO = 999
REV_AT_EPOCH   = 62971
BSTAR          = .58558E-4
MEAN_MOTION_DOT = .152E-5
MEAN_MOTION_DDOT = 0

CCSDS_OMM_VERS = 2.0
CREATION_DATE  = 
ORIGINATOR     = 

OBJECT_NAME    = SL-3 R/B
OBJECT_ID      = 1977-057B
CENTER_NAME    = EARTH
REF_FRAME      = TEME
TIME_SYSTEM    = UTC
MEAN_ELEMENT_THEORY = SGP/SGP4

EPOCH          = 2026-02-22T18:14:43.985184
MEAN_MOTION    = 15.45027713
ECCENTRICITY   = .0006949
INCLINATION    = 97.5756
RA_OF_ASC_NODE = 225.0310
ARG_OF_PERICENTER = 345.4034
MEAN_ANOMALY   = 14.7013

EPHEMERIS_TYPE = 0
CLASSIFICATION_TYPE = U
NORAD_CAT_ID   = 10114
ELEMENT_SET_NO = 999
REV_AT_EPOCH   = 66602
BSTAR          = .33464E-3
MEAN_MOTION_DOT = .15723E-3
MEAN_MOTION_DDOT = 0

CCSDS_OMM_VERS = 2.0
CREATION_DATE  = 
ORIGINATOR     = 

OBJECT_NAME    = SEASAT 1
OBJECT_ID      = 1978-064A
CENTER_NAME    = EARTH
REF_FRAME      = TEME
TIME_SYSTEM    = UTC
MEAN_ELEMENT_THEORY = SGP/SGP4

EPOCH          = 2026-02-22T16:38:12.043680
MEAN_MOTION    = 14.46147677
ECCENTRICITY   = .0001936
INCLINATION    = 108.0145
RA_OF_ASC_NODE = 94.0294
ARG_OF_PERICENTER = 291.2717
MEAN_ANOMALY   = 68.8221

EPHEMERIS_TYPE = 0
CLASSIFICATION_TYPE = U
NORAD_CAT_ID   = 10967
ELEMENT_SET_NO = 999
REV_AT_EPOCH   = 50434
BSTAR          = .10183E-3
MEAN_MOTION_DOT = .227E-5
MEAN_MOTION_DDOT = 0

CCSDS_OMM_VERS = 2.0
CREATION_DATE  = 
ORIGINATOR     = 

OBJECT_NAME    = SL-14 R/B
OBJECT_ID      = 1979-011B
CENTER_NAME    = EARTH
REF_FRAME      = TEME
TIME_SYSTEM    = UTC
MEAN_ELEMENT_THEORY = SGP/SGP4

EPOCH          = 2026-02-22T14:58:14.819232
MEAN_MOTION    = 14.91888993
ECCENTRICITY   = .0017604
INCLINATION    = 82.5232
RA_OF_ASC_NODE = 110.8687
ARG_OF_PERICENTER = 106.8079
MEAN_ANOMALY   = 253.5073

EPHEMERIS_TYPE = 0
CLASSIFICATION_TYPE = U
NORAD_CAT_ID   = 11267
ELEMENT_SET_NO = 999
REV_AT_EPOCH   = 52653
BSTAR          = .49527E-4
MEAN_MOTION_DOT = .528E-5
MEAN_MOTION_DDOT = 0

CCSDS_OMM_VERS = 2.0
CREATION_DATE  = 
ORIGINATOR     = 

OBJECT_NAME    = SL-8 R/B
OBJECT_ID      = 1979-089B
CENTER_NAME    = EARTH
REF_FRAME      = TEME
TIME_SYSTEM    = UTC
MEAN_ELEMENT_THEORY = SGP/SGP4

EPOCH          = 2026-02-22T15:00:09.268992
MEAN_MOTION    = 14.42340699
ECCENTRICITY   = .0016981
INCLINATION    = 74.0685
RA_OF_ASC_NODE = 118.9312
ARG_OF_PERICENTER = 293.1434
MEAN_ANOMALY   = 66.7932

EPHEMERIS_TYPE = 0
CLASSIFICATION_TYPE = U
NORAD_CAT_ID   = 11574
ELEMENT_SET_NO = 999
REV_AT_EPOCH   = 43393
BSTAR          = .78465E-4
MEAN_MOTION_DOT = .233E-5
MEAN_MOTION_DDOT = 0

CCSDS_OMM_VERS = 2.0
CREATION_DATE  = 
ORIGINATOR     = 

OBJECT_NAME    = SL-14 R/B
OBJECT_ID      = 1980-005B
CENTER_NAME    = EARTH
REF_FRAME      = TEME
TIME_SYSTEM    = UTC
MEAN_ELEMENT_THEORY = SGP/SGP4

EPOCH          = 2026-02-22T16:39:22.900320
MEAN_MOTION    = 14.90910181
ECCENTRICITY   = .0014846
INCLINATION    = 82.5169
RA_OF_ASC_NODE = 321.4579
ARG_OF_PERICENTER = 208.6448
MEAN_ANOMALY   = 151.3957

EPHEMERIS_TYPE = 0
CLASSIFICATION_TYPE = U
NORAD_CAT_ID   = 11672
ELEMENT_SET_NO = 999
REV_AT_EPOCH   = 47425
BSTAR          = .57161E-4
MEAN_MOTION_DOT = .59E-5
MEAN_MOTION_DDOT = 0

CCSDS_OMM_VERS = 2.0
CREATION_DATE  = 
ORIGINATOR     = 

OBJECT_NAME    = SL-8 R/B
OBJECT_ID      = 1981-003B
CENTER_NAME    = EARTH
REF_FRAME      = TEME
TIME_SYSTEM    = UTC
MEAN_ELEMENT_THEORY = SGP/SGP4

EPOCH          = 2026-02-22T16:46:47.074080
MEAN_MOTION    = 15.10373142
ECCENTRICITY   = .0262715
INCLINATION    = 82.9392
RA_OF_ASC_NODE = 303.8793
ARG_OF_PERICENTER = 230.7726
MEAN_ANOMALY   = 126.9924

EPHEMERIS_TYPE = 0
CLASSIFICATION_TYPE = U
NORAD_CAT_ID   = 12139
ELEMENT_SET_NO = 999
REV_AT_EPOCH   = 31241
BSTAR          = .43444E-3
MEAN_MOTION_DOT = .16615E-3
MEAN_MOTION_DDOT = 0

CCSDS_OMM_VERS = 2.0
CREATION_DATE  = 
ORIGINATOR     = 

OBJECT_NAME    = SL-3 R/B
OBJECT_ID      = 1981-046B
CENTER_NAME    = EARTH
REF_FRAME      = TEME
TIME_SYSTEM    = UTC
MEAN_ELEMENT_THEORY = SGP/SGP4

EPOCH          = 2026-02-22T19:00:56.555136
MEAN_MOTION    = 15.41561936
ECCENTRICITY   = .0020641
INCLINATION    = 81.2323
RA_OF_ASC_NODE = 307.6258
ARG_OF_PERICENTER = 71.8301
MEAN_ANOMALY   = 288.5187

EPHEMERIS_TYPE = 0
CLASSIFICATION_TYPE = U
NORAD_CAT_ID   = 12465
ELEMENT_SET_NO = 999
REV_AT_EPOCH   = 43613
BSTAR          = .36394E-3
MEAN_MOTION_DOT = .15444E-3
MEAN_MOTION_DDOT = 0

CCSDS_OMM_VERS = 2.0
CREATION_DATE  = 
ORIGINATOR     = 

OBJECT_NAME    = SL-3 R/B
OBJECT_ID      = 1981-103B
CENTER_NAME    = EARTH
REF_FRAME      = TEME
TIME_SYSTEM    = UTC
MEAN_ELEMENT_THEORY = SGP/SGP4

EPOCH          = 2026-02-22T18:36:53.080704
MEAN_MOTION    = 15.21174586
ECCENTRICITY   = .0012914
INCLINATION    = 81.1566
RA_OF_ASC_NODE = 230.9265
ARG_OF_PERICENTER = 340.0086
MEAN_ANOMALY   = 20.0638

EPHEMERIS_TYPE = 0
CLASSIFICATION_TYPE = U
NORAD_CAT_ID   = 12904
ELEMENT_SET_NO = 999
REV_AT_EPOCH   = 97096
BSTAR          = .26643E-3
MEAN_MOTION_DOT = .5974E-4
MEAN_MOTION_DDOT = 0

CCSDS_OMM_VERS = 2.0
CREATION_DATE  = 
ORIGINATOR     = 

OBJECT_NAME    = SL-3 R/B
OBJECT_ID      = 1982-013B
CENTER_NAME    = EARTH
REF_FRAME      = TEME
TIME_SYSTEM    = UTC
MEAN_ELEMENT_THEORY = SGP/SGP4

EPOCH          = 2026-02-22T18:57:39.329856
MEAN_MOTION    = 15.21839197
ECCENTRICITY   = .0021948
INCLINATION    = 81.1762
RA_OF_ASC_NODE = 178.2274
ARG_OF_PERICENTER = 228.5520
MEAN_ANOMALY   = 131.3827

EPHEMERIS_TYPE = 0
CLASSIFICATION_TYPE = U
NORAD_CAT_ID   = 13068
ELEMENT_SET_NO = 999
REV_AT_EPOCH   = 40208
BSTAR          = .23194E-3
MEAN_MOTION_DOT = .5329E-4
MEAN_MOTION_DDOT = 0

CCSDS_OMM_VERS = 2.0
CREATION_DATE  = 
ORIGINATOR     = 

OBJECT_NAME    = SL-3 R/B
OBJECT_ID      = 1982-039B
CENTER_NAME    = EARTH
REF_FRAME      = TEME
TIME_SYSTEM    = UTC
MEAN_ELEMENT_THEORY = SGP/SGP4

EPOCH          = 2026-02-22T17:56:16.738080
MEAN_MOTION    = 15.09986140
ECCENTRICITY   = .0030013
INCLINATION    = 81.1591
RA_OF_ASC_NODE = 233.1873
ARG_OF_PERICENTER = 13.2402
MEAN_ANOMALY   = 346.9603

EPHEMERIS_TYPE = 0
CLASSIFICATION_TYPE = U
NORAD_CAT_ID   = 13154
ELEMENT_SET_NO = 999
REV_AT_EPOCH   = 37938
BSTAR          = .16042E-3
MEAN_MOTION_DOT = .2655E-4
MEAN_MOTION_DDOT = 0

