ATLAS CENTAUR R/B       
1 06155U 72065B   26053.62585652  .00001357  00000+0  18795-3 0  9990
2 06155  35.0024  34.0279 0034384 243.8816 115.8345 14.77638885839039
SL-8 R/B                
1 08459U 75112B   26053.68689814  .00000152  00000+0  58558-4 0  9990
2 08459  74.0598  46.5105 0014819 145.5893 214.6224 14.38194483629711
SL-3 R/B                
1 10114U 77057B   26053.76023131  .00015723  00000+0  33464-3 0  9992
2 10114  97.5756 225.0310 0006949 345.4034  14.7013 15.45027713666023
SEASAT 1                
1 10967U 78064A   26053.69319495  .00000227  00000+0  10183-3 0  9996
2 10967 108.0145  94.0294 0001936 291.2717  68.8221 14.46147677504340
SL-14 R/B               
1 11267U 79011B   26053.62378263  .00000528  00000+0  49527-4 0  9993
2 11267  82.5232 110.8687 0017604 106.8079 253.5073 14.91888993526537
SL-8 R/B                
1 11574U 79089B   26053.62510728  .00000233  00000+0  78465-4 0  9999
2 11574  74.0685 118.9312 0016981 293.1434  66.7932 14.42340699433933
SL-14 R/B               
1 11672U 80005B   26053.69401505  .00000590  00000+0  57161-4 0  9993
2 11672  82.5169 321.4579 0014846 208.6448 151.3957 14.90910181474253
SL-8 R/B                
1 12139U 81003B   26053.69915595  .00016615  00000+0  43444-3 0  9993
2 12139  82.9392 303.8793 0262715 230.7726 126.9924 15.10373142312415
SL-3 R/B                
1 12465U 81046B   26053.79232124  .00015444  00000+0  36394-3 0  9998
2 12465  81.2323 307.6258 0020641  71.8301 288.5187 15.41561936436130
SL-3 R/B                
1 12904U 81103B   26053.77561436  .00005974  00000+0  26643-3 0  9992
2 12904  81.1566 230.9265 0012914 340.0086  20.0638 15.21174586970960
SL-3 R/B                
1 13068U 82013B   26053.79003854  .00005329  00000+0  23194-3 0  9994
2 13068  81.1762 178.2274 0021948 228.5520 131.3827 15.21839197402089
SL-3 R/B                
1 13154U 82039B   26053.74741595  .00002655  00000+0  16042-3 0  9997
2 13154  81.1591 233.1873 0030013  13.2402 346.9603 15.09986140379381
